SL-8 R/B                
1 11574U 79089B   26087.19504312  .00000336  00000+0  10954-3 0  9992
2 11574  74.0684  56.7844 0016786 227.1368 132.8379 14.42361715438776
SL-14 R/B               
1 11672U 80005B   26087.04966324  .00000559  00000+0  53931-4 0  9990
2 11672  82.5114 289.8165 0017214 101.2203 259.0952 14.90950407479228
SL-8 R/B                
1 12139U 81003B   26086.94350670  .00023625  00000+0  59252-3 0  9997
2 12139  82.9336 273.1340 0260921 115.1116 247.7434 15.11763667317437
SL-3 R/B                
1 12465U 81046B   26087.21097079  .00012975  00000+0  29743-3 0  9996
2 12465  81.2285 267.4922 0018262 316.7056  43.2751 15.42438280441283
SL-3 R/B                
1 12904U 81103B   26087.25244099  .00005715  00000+0  25174-3 0  9996
2 12904  81.1605 191.6570 0012699 219.9909 140.0389 15.21590537976054
SL-3 R/B                
1 13068U 82013B   26087.18731173  .00003643  00000+0  15645-3 0  9995
2 13068  81.1740 139.0894 0023475 116.7165 243.6474 15.22179098407165
SL-3 R/B                
1 13154U 82039B   26087.20950783  .00002863  00000+0  17237-3 0  9994
2 13154  81.1567 194.6078 0028666 263.2418  96.5545 15.10182067384430
SL-3 R/B                
1 13403U 82079B   26087.23662557  .00006651  00000+0  26273-3 0  9996
2 13403  81.1485 171.1784 0025507 103.7667 256.6408 15.25044159380523
SL-14 R/B               
1 13553U 82092B   26087.15198966  .00000404  00000+0  42630-4 0  9992
2 13553  82.5659 124.1284 0019004 237.5194 179.9998 14.86682469331677
SL-3 R/B                
1 13819U 83010B   26087.26382520  .00016538  00000+0  32549-3 0  9993
2 13819  81.1057 339.4667 0016039 347.8137  12.2718 15.46973076360813
SL-3 R/B                
1 14208U 83075B   26087.22204228  .00012375  00000+0  32157-3 0  9991
2 14208  97.6141  92.5072 0022181 158.5424 201.6756 15.38843694333000
COSMOS 1536             
1 14699U 84013A   26087.23636227  .00007075  00000+0  28954-3 0  9998
2 14699  82.5415  89.4056 0013249 210.1146 149.9331 15.24069297275449
SL-14 R/B               
1 14820U 84027B   26087.14348272  .00000590  00000+0  64614-4 0  9998
2 14820  82.5416 227.7034 0016470 272.5852  87.3479 14.85995490250376
SL-8 R/B                
1 15483U 85006B   26087.11805248  .00000299  00000+0  10771-3 0  9990
2 15483  74.0450 227.2359 0017700 139.7979  33.0153 14.37796154156670
SL-12 R/B(2)            
1 15772U 85042D   26087.27351032  .00000055  00000+0  46279-4 0  9998
2 15772  71.1085  48.4634 0032845  97.3516   5.1811 14.21987641117039
SL-14 R/B               
1 15945U 85069B   26087.18996579  .00000543  00000+0  58444-4 0  9999
2 15945  82.5305   7.5416 0019992 128.0967 232.2056 14.86452951175586
SL-16 R/B               
1 16182U 85097B   26087.20691001 -.00000043  00000+0  23809-5 0  9993
2 16182  71.0008 101.5683 0009468 238.1697 194.3708 14.16603602 89854
